OBJECT_NAME,OBJECT_ID,EPOCH,MEAN_MOTION,ECCENTRICITY,INCLINATION,RA_OF_ASC_NODE,ARG_OF_PERICENTER,MEAN_ANOMALY,EPHEMERIS_TYPE,CLASSIFICATION_TYPE,NORAD_CAT_ID,ELEMENT_SET_NO,REV_AT_EPOCH,BSTAR,MEAN_MOTION_DOT,MEAN_MOTION_DDOT
LEMUR-2-FINNIAN,2025-276DX,2026-07-05T03:40:00.972192,15.00539446,.00084676,97.5318,256.5831,37.3542,322.8270,0,U,66782,999,2269,.30930727E-3,.3846E-4,0
LEMUR-2-STARLIGHT,2025-276DY,2026-07-05T04:35:57.880032,14.99267123,.00146506,97.5224,256.2150,76.2923,283.9931,0,U,66783,999,3289,.98592391E-3,.12012E-3,0
LEMUR-2-TARTIFLETTE,2025-276DZ,2026-07-05T04:33:32.798016,14.99263341,.00136731,97.5225,256.2213,83.9718,276.3063,0,U,66784,999,3289,.84074027E-3,.10228E-3,0
LEMUR-2-VUKASIN,2025-276EA,2026-07-05T04:02:30.923808,15.00457120,.00046134,97.5256,256.5396,82.2970,277.8778,0,U,66785,999,3284,.21869302E-3,.2695E-4,0
LEMUR-2-HOTSPUR-TOM,2025-276EB,2026-07-05T04:24:34.697952,14.99168806,.00140392,97.5218,256.1926,75.2792,284.9986,0,U,66786,999,3282,.90814207E-3,.11028E-3,0
LEMUR-2-MYRA,2025-276EC,2026-07-05T04:48:46.895328,15.00509352,.00183763,97.5207,256.4925,84.5712,275.7608,0,U,66787,999,3291,.94145203E-3,.11861E-3,0
LEMUR-2 FIKRETDENGIZ,2026-004A,2026-07-05T10:05:20.482080,14.88470342,.00105952,97.8025,184.6996,82.8816,277.3605,0,U,67363,999,2599,.73668931E-3,.6796E-4,0
TWILIGHT-1 OBJECT B,2026-004B,2026-07-05T10:52:06.499200,14.87771894,.00101909,97.8067,184.7380,73.6401,286.5936,0,U,67364,999,2600,.3066162E-3,.2746E-4,0
LEMUR-2-MARIO-SOUSA,2026-004C,2026-07-05T09:38:18.183840,14.88673083,.0010183,97.7995,184.6763,84.1684,276.0694,0,U,67365,999,2600,.81017535E-3,.7517E-4,0
LEMUR-2-SONNENBLUME,2026-004E,2026-07-05T11:16:43.018176,14.88418945,.00097243,97.7990,184.7207,85.1458,275.0869,0,U,67367,999,2601,.46554578E-3,.4267E-4,0
LEMUR-2-WOBLER,2026-004F,2026-07-04T23:45:59.645088,14.88647220,.00099202,97.8040,184.3888,77.6792,282.5535,0,U,67368,999,2594,.62762495E-3,.5805E-4,0
LEMUR-2-GRAM-E-SUE,2026-004H,2026-07-05T10:51:15.023808,14.88560747,.00088486,97.7978,184.7198,87.2790,272.9439,0,U,67370,999,2601,.4019201E-3,.3688E-4,0
LEMUR-2-KATIE,2026-004AA,2026-07-04T22:47:56.401440,14.90186442,.00043422,97.8042,184.7424,57.3934,302.7702,0,U,67387,999,2595,.89934824E-3,.8665E-4,0
LEMUR-2-HCS-BAZUS,2026-004AB,2026-07-04T22:45:47.839968,14.90225147,.00037341,97.8028,184.7206,55.9351,304.2221,0,U,67388,999,2595,.44477658E-3,.4259E-4,0
